[{"city_id": 1, "region_id": 7, "name_ar": "تبوك", "name_en": "Tabuk", "center": [28.41463997, 36.53387003]}, {"city_id": 3, "region_id": 1, "name_ar": "الرياض", "name_en": "Riyadh", "center": [24.69999996, 46.73333003]}, {"city_id": 5, "region_id": 2, "name_ar": "الطائف", "name_en": "At Taif", "center": [21.26848005, 40.41667003]}, {"city_id": 6, "region_id": 2, "name_ar": "مكة المكرمة", "name_en": "Makkah Al Mukarramah", "center": [21.42717994, 39.84349001]}, {"city_id": 10, "region_id": 8, "name_ar": "حائل", "name_en": "Hail", "center": [27.53054999, 41.69733002]}, {"city_id": 11, "region_id": 4, "name_ar": "بريدة", "name_en": "Buraydah", "center": [26.33033999, 43.97435997]}, {"city_id": 12, "region_id": 5, "name_ar": "الهفوف", "name_en": "Al Hufuf", "center": [25.36655003, 49.60435986]}, {"city_id": 13, "region_id": 5, "name_ar": "الدمام", "name_en": "Dammam", "center": [26.44199002, 50.10919981]}, {"city_id": 14, "region_id": 3, "name_ar": "المدينة المنورة", "name_en": "Al Madinah Al Munawwarah", "center": [24.47057996, 39.60781006]}, {"city_id": 15, "region_id": 6, "name_ar": "ابها", "name_en": "Abha", "center": [18.21667, 42.50000002]}, {"city_id": 17, "region_id": 10, "name_ar": "جازان", "name_en": "Jazan", "center": [16.89671995, 42.55360001]}, {"city_id": 18, "region_id": 2, "name_ar": "جدة", "name_en": "Jeddah", "center": [21.48817996, 39.18094995]}, {"city_id": 24, "region_id": 1, "name_ar": "المجمعة", "name_en": "Al Majma'ah", "center": [25.90742996, 45.33901994]}, {"city_id": 31, "region_id": 5, "name_ar": "الخبر", "name_en": "Al Khobar", "center": [26.31090997, 50.21074975]}, {"city_id": 36, "region_id": 7, "name_ar": "حقل", "name_en": "Haql", "center": [29.30102998, 34.94863003]}, {"city_id": 47, "region_id": 5, "name_ar": "حفر الباطن", "name_en": "Hafar Al Batin", "center": [28.43750001, 45.98046997]}, {"city_id": 62, "region_id": 6, "name_ar": "خميس مشيط", "name_en": "Khamis Mushayt", "center": [18.30613002, 42.72976998]}, {"city_id": 65, "region_id": 6, "name_ar": "احد رفيده", "name_en": "Ahad Rifaydah", "center": [18.17358001, 42.83663]}, {"city_id": 67, "region_id": 5, "name_ar": "القطيف", "name_en": "Al Qatif", "center": [26.56387002, 50.00120987]}, {"city_id": 74, "region_id": 7, "name_ar": "تيماء", "name_en": "Tayma'", "center": [27.63502, 38.55060002]}, {"city_id": 80, "region_id": 4, "name_ar": "عنيزة", "name_en": "Unayzah", "center": [26.09155002, 43.98767004]}, {"city_id": 89, "region_id": 5, "name_ar": "قرية العليا", "name_en": "Qaryat Al 'ulya", "center": [27.56297, 47.70039992]}, {"city_id": 113, "region_id": 5, "name_ar": "الجبيل", "name_en": "Al Jubail", "center": [26.99921004, 49.67046985]}, {"city_id": 115, "region_id": 5, "name_ar": "النعيرية", "name_en": "An Nu'ayriyah", "center": [27.47569997, 48.47742996]}, {"city_id": 153, "region_id": 1, "name_ar": "حرمة", "name_en": "Harmah", "center": [25.92815003, 45.33966995]}, {"city_id": 167, "region_id": 1, "name_ar": "تمير", "name_en": "Tumair", "center": [25.70913996, 45.86926994]}, {"city_id": 199, "region_id": 3, "name_ar": "العلا", "name_en": "Al Ula", "center": [26.63478003, 37.90992002]}, {"city_id": 227, "region_id": 5, "name_ar": "الظهران", "name_en": "Dhahran", "center": [26.30357996, 50.12261974]}, {"city_id": 233, "region_id": 7, "name_ar": "الوجه", "name_en": "Al Wajh", "center": [26.24021994, 36.47300001]}, {"city_id": 243, "region_id": 5, "name_ar": "بقيق", "name_en": "Buqayq", "center": [25.94465995, 49.68411985]}, {"city_id": 256, "region_id": 6, "name_ar": "طريب", "name_en": "Tarib", "center": [18.5667607, 43.20690401]}, {"city_id": 270, "region_id": 1, "name_ar": "الزلفي", "name_en": "Az Zulfi", "center": [26.29711002, 44.80577002]}, {"city_id": 288, "region_id": 3, "name_ar": "خيبر", "name_en": "Khaybar", "center": [25.71837, 39.27875995]}, {"city_id": 306, "region_id": 1, "name_ar": "الغاط", "name_en": "Al Ghat", "center": [26.04074997, 44.95036003]}, {"city_id": 323, "region_id": 7, "name_ar": "املج", "name_en": "Umluj", "center": [25.03865002, 37.25937997]}, {"city_id": 377, "region_id": 2, "name_ar": "رابغ", "name_en": "Rabigh", "center": [22.79374001, 39.03445994]}, {"city_id": 418, "region_id": 1, "name_ar": "عفيف", "name_en": "Afif", "center": [23.90952998, 42.92142996]}, {"city_id": 443, "region_id": 1, "name_ar": "ثادق", "name_en": "Thadiq", "center": [25.29714995, 45.86178998]}, {"city_id": 454, "region_id": 5, "name_ar": "سيهات", "name_en": "Sayhat", "center": [26.48341001, 50.04679975]}, {"city_id": 456, "region_id": 5, "name_ar": "تاروت", "name_en": "Tarut", "center": [26.57110001, 50.07269982]}, {"city_id": 483, "region_id": 3, "name_ar": "ينبع", "name_en": "Yanbu", "center": [24.09391997, 38.06336005]}, {"city_id": 500, "region_id": 1, "name_ar": "شقراء", "name_en": "Shaqra'", "center": [25.24146004, 45.25506007]}, {"city_id": 669, "region_id": 1, "name_ar": "الدوادمي", "name_en": "Ad Duwadimi", "center": [24.50127995, 44.38113994]}, {"city_id": 795, "region_id": 1, "name_ar": "حريملاء", "name_en": "Huraymila", "center": [25.13225998, 46.12835005]}, {"city_id": 828, "region_id": 1, "name_ar": "الدرعية", "name_en": "Ad Dir'iyah", "center": [24.74104999, 46.58058993]}, {"city_id": 839, "region_id": 1, "name_ar": "ضرما", "name_en": "Duruma", "center": [24.60411001, 46.13181995]}, {"city_id": 880, "region_id": 1, "name_ar": "القويعية", "name_en": "Al Quway'iyah", "center": [24.05067994, 45.26571998]}, {"city_id": 990, "region_id": 1, "name_ar": "المزاحمية", "name_en": "Al Muzahimiyah", "center": [24.46203004, 46.27660003]}, {"city_id": 1053, "region_id": 3, "name_ar": "بدر", "name_en": "Badr", "center": [23.78301006, 38.79495005]}, {"city_id": 1061, "region_id": 1, "name_ar": "الخرج", "name_en": "Al Kharj", "center": [24.15869998, 47.32695995]}, {"city_id": 1073, "region_id": 1, "name_ar": "الدلم", "name_en": "Ad Dilam", "center": [23.99383001, 47.21941]}, {"city_id": 1105, "region_id": 2, "name_ar": "خليص", "name_en": "Khulays", "center": [22.155, 39.33763333]}, {"city_id": 1228, "region_id": 8, "name_ar": "الشنان", "name_en": "Ash Shinan", "center": [27.18067001, 42.44156006]}, {"city_id": 1248, "region_id": 2, "name_ar": "الخرمة", "name_en": "Al Khurmah", "center": [21.91372003, 42.03397998]}, {"city_id": 1257, "region_id": 2, "name_ar": "الجموم", "name_en": "Al Jumum", "center": [21.61476996, 39.69689997]}, {"city_id": 1294, "region_id": 6, "name_ar": "المجاردة", "name_en": "Al Majardah", "center": [19.12438998, 41.93629999]}, {"city_id": 1361, "region_id": 1, "name_ar": "السليل", "name_en": "As Sulayyil", "center": [20.47345006, 45.57561002]}, {"city_id": 1443, "region_id": 6, "name_ar": "تثليث", "name_en": "Tathlith", "center": [19.53081996, 43.50362995]}, {"city_id": 1514, "region_id": 6, "name_ar": "بيشة", "name_en": "Bishah", "center": [20.00736004, 42.60646004]}, {"city_id": 1542, "region_id": 12, "name_ar": "الباحة", "name_en": "Al Baha", "center": [20.00695006, 41.46314]}, {"city_id": 1625, "region_id": 2, "name_ar": "القنفذة", "name_en": "Al Qunfidhah", "center": [19.12722996, 41.09060996]}, {"city_id": 1627, "region_id": 6, "name_ar": "سبت العلاية", "name_en": "Sabt Al 'alayah", "center": [19.56225002, 41.96276006]}, {"city_id": 1801, "region_id": 6, "name_ar": "محايل", "name_en": "Muhayil", "center": [18.54434004, 42.04321]}, {"city_id": 1879, "region_id": 2, "name_ar": "ثول", "name_en": "Thuwal", "center": [22.27165001, 39.10917999]}, {"city_id": 1947, "region_id": 7, "name_ar": "ضبا", "name_en": "Duba", "center": [27.36211995, 35.68198997]}, {"city_id": 1999, "region_id": 4, "name_ar": "عيون الجواء", "name_en": "Uyun Al Jawa'", "center": [26.49974004, 43.62932997]}, {"city_id": 2156, "region_id": 2, "name_ar": "تربه", "name_en": "Turbah", "center": [21.20677997, 41.63521004]}, {"city_id": 2167, "region_id": 5, "name_ar": "صفوى", "name_en": "Safwa", "center": [26.66339995, 49.9616098]}, {"city_id": 2171, "region_id": 5, "name_ar": "عنك", "name_en": "'inak", "center": [26.52814, 50.02680977]}, {"city_id": 2176, "region_id": 5, "name_ar": "دارين", "name_en": "Darin", "center": [26.55389001, 50.08275981]}, {"city_id": 2208, "region_id": 9, "name_ar": "طريف", "name_en": "Turaif", "center": [31.68193994, 38.65750003]}, {"city_id": 2213, "region_id": 9, "name_ar": "عرعر", "name_en": "Ar'ar", "center": [30.97214998, 41.01332997]}, {"city_id": 2226, "region_id": 13, "name_ar": "القريات", "name_en": "Al Qurayyat", "center": [31.35133999, 37.33972993]}, {"city_id": 2234, "region_id": 13, "name_ar": "صوير", "name_en": "Suwayr", "center": [30.14147004, 40.36975004]}, {"city_id": 2237, "region_id": 13, "name_ar": "سكاكا", "name_en": "Sakaka", "center": [29.9728, 40.21416997]}, {"city_id": 2256, "region_id": 9, "name_ar": "رفحاء", "name_en": "Rafha'", "center": [29.63723002, 43.49903001]}, {"city_id": 2268, "region_id": 13, "name_ar": "دومة الجندل", "name_en": "Dawmat Al Jandal", "center": [29.81786995, 39.86566997]}, {"city_id": 2270, "region_id": 13, "name_ar": "الأضارع", "name_en": "Al Adari'", "center": [29.82666005, 39.55713005]}, {"city_id": 2421, "region_id": 4, "name_ar": "الرس", "name_en": "Ar Rass", "center": [25.87025999, 43.50747996]}, {"city_id": 2448, "region_id": 4, "name_ar": "المذنب", "name_en": "Al Midhnab", "center": [25.86073, 44.22219004]}, {"city_id": 2464, "region_id": 5, "name_ar": "الخفجي", "name_en": "Al Khafji", "center": [28.43980997, 48.49033999]}, {"city_id": 2467, "region_id": 4, "name_ar": "رياض الخبراء", "name_en": "Riyad Al Khabra", "center": [26.03877996, 43.53903006]}, {"city_id": 2481, "region_id": 4, "name_ar": "البدائع", "name_en": "Al Badai'", "center": [25.99835995, 43.72565998]}, {"city_id": 2519, "region_id": 6, "name_ar": "النماص", "name_en": "An Namas (Tanumah)", "center": [19.12173995, 42.13678004]}, {"city_id": 2522, "region_id": 11, "name_ar": "يدمة", "name_en": "Yadamah", "center": [18.52821182, 44.27333336]}, {"city_id": 2590, "region_id": 5, "name_ar": "راس تنورة", "name_en": "Ras Tannurah", "center": [26.70673998, 50.07245984]}, {"city_id": 2629, "region_id": 4, "name_ar": "الهلالية", "name_en": "Al Hilaliyah", "center": [26.11904995, 43.69033004]}, {"city_id": 2630, "region_id": 4, "name_ar": "البكيرية", "name_en": "Al Bukayriyah", "center": [26.14888995, 43.65727004]}, {"city_id": 2748, "region_id": 5, "name_ar": "المبرز", "name_en": "Al Mubarraz", "center": [25.40610996, 49.58653982]}, {"city_id": 2777, "region_id": 4, "name_ar": "الشماسية", "name_en": "Ash Shimasiyah", "center": [26.32592999, 44.25512996]}, {"city_id": 3030, "region_id": 4, "name_ar": "النبهانية", "name_en": "An Nabhaniyah", "center": [25.87207999, 43.05837002]}, {"city_id": 3158, "region_id": 1, "name_ar": "الحريق", "name_en": "Al Hariq", "center": [23.61667004, 46.51667005]}, {"city_id": 3161, "region_id": 1, "name_ar": "حوطة بني تميم", "name_en": "Hawtat Bani Tamim", "center": [23.49761003, 46.86429996]}, {"city_id": 3174, "region_id": 1, "name_ar": "ليلى", "name_en": "Layla", "center": [22.28636003, 46.73165997]}, {"city_id": 3275, "region_id": 6, "name_ar": "بللسمر", "name_en": "Billasmar", "center": [18.77344996, 42.27242002]}, {"city_id": 3328, "region_id": 6, "name_ar": "سراة عبيدة", "name_en": "Sarat Abidah", "center": [18.08422994, 43.14460004]}, {"city_id": 3347, "region_id": 11, "name_ar": "شرورة", "name_en": "Sharurah", "center": [17.4997518, 47.18864332]}, {"city_id": 3417, "region_id": 11, "name_ar": "نجران", "name_en": "Najran", "center": [17.5408618, 44.2663834]}, {"city_id": 3479, "region_id": 10, "name_ar": "صبيا", "name_en": "Sabya", "center": [17.14780001, 42.63250999]}, {"city_id": 3525, "region_id": 10, "name_ar": "ابو عريش", "name_en": "Abu Arish", "center": [16.96509999, 42.83113998]}, {"city_id": 3542, "region_id": 10, "name_ar": "صامطة", "name_en": "Samtah", "center": [16.60519001, 42.94083001]}, {"city_id": 3597, "region_id": 10, "name_ar": "العارضة", "name_en": "Al 'aridah", "center": [17.03897, 43.08800005]}, {"city_id": 3652, "region_id": 10, "name_ar": "احد المسارحة", "name_en": "Ahad Al Musarihah", "center": [16.70809996, 42.95145998]}, {"city_id": 3666, "region_id": 2, "name_ar": "مدينة الملك عبدالله الاقتصادية", "name_en": "King Abdullah Economic City", "center": [22.46083839, 39.13119236]}, {"city_id": 3677, "region_id": 5, "name_ar": "الاحساء", "name_en": "Al Ahsa", "center": [25.39574461, 49.6162808]}, {"city_id": 3678, "region_id": 6, "name_ar": "تندحة", "name_en": "Tendaha", "center": [18.35717506, 42.83458859]}, {"city_id": 9605, "region_id": 3, "name_ar": "ينبع الصناعية", "name_en": "Yanbu Al Sinaiyah", "center": [24.01064515, 38.26633335]}, {"city_id": 10872, "region_id": 4, "name_ar": "المرموثة", "name_en": "Al Marmuthah", "center": [25.55005, 42.83408333]}]